start=new Date('2022-07-23T00:00:00.000Z').valueOf();
sats=[{"SITE":"AFETR","TIME_SYSTEM":"UTC","PERIAPSIS":"546.321","APOAPSIS":"548.231","FILE":"3519932","CLASSIFICATION_TYPE":"U","ELEMENT_SET_NO":"999","GP_ID":"208670543","ECCENTRICITY":"0.00013790","MEAN_ELEMENT_THEORY":"SGP4","OBJECT_ID":"2021-036J","RA_OF_ASC_NODE":"275.0265","EPOCH":"2022-07-22T12:27:40.138848","REV_AT_EPOCH":"6842","DECAY_DATE":null,"LAUNCH_DATE":"2021-04-29","OBJECT_NAME":"STARLINK-2564","SEMIMAJOR_AXIS":"6925.411","INCLINATION":"53.0543","PERIOD":"95.593","REF_FRAME":"TEME","ARG_OF_PERICENTER":"78.4048","OBJECT_TYPE":"PAYLOAD","TLE_LINE2":"2 48284  53.0543 275.0265 0001379  78.4048 281.7096 15.06379699 68424","TLE_LINE1":"1 48284U 21036J   22203.51921457  .00001362  00000-0  11036-3 0  9997","EPHEMERIS_TYPE":"0","NORAD_CAT_ID":"48284","MEAN_MOTION_DDOT":"0.0000000000000","COUNTRY_CODE":"US","BSTAR":"0.00011036000000","CENTER_NAME":"EARTH","MEAN_MOTION_DOT":"0.00001362","RCS_SIZE":"LARGE","MEAN_ANOMALY":"281.7096","MEAN_MOTION":"15.06379699"},{"PERIAPSIS":"546.260","SITE":"AFETR","TIME_SYSTEM":"UTC","CLASSIFICATION_TYPE":"U","ELEMENT_SET_NO":"999","ECCENTRICITY":"0.00013900","GP_ID":"208670275","APOAPSIS":"548.185","FILE":"3519932","REV_AT_EPOCH":"6842","EPOCH":"2022-07-22T12:20:58.307136","OBJECT_ID":"2021-036K","RA_OF_ASC_NODE":"275.0475","MEAN_ELEMENT_THEORY":"SGP4","LAUNCH_DATE":"2021-04-29","OBJECT_NAME":"STARLINK-2548","DECAY_DATE":null,"ARG_OF_PERICENTER":"74.3383","REF_FRAME":"TEME","PERIOD":"95.592","INCLINATION":"53.0529","SEMIMAJOR_AXIS":"6925.358","OBJECT_TYPE":"PAYLOAD","TLE_LINE2":"2 48285  53.0529 275.0475 0001390  74.3383 285.7759 15.06396976 68429","TLE_LINE1":"1 48285U 21036K   22203.51456374  .00005934  00000-0  41698-3 0  9995","CENTER_NAME":"EARTH","MEAN_MOTION_DOT":"0.00005934","COUNTRY_CODE":"US","BSTAR":"0.00041698000000","MEAN_MOTION_DDOT":"0.0000000000000","EPHEMERIS_TYPE":"0","NORAD_CAT_ID":"48285","MEAN_MOTION":"15.06396976","RCS_SIZE":"LARGE","MEAN_ANOMALY":"285.7759"},{"EPHEMERIS_TYPE":"0","NORAD_CAT_ID":"48286","MEAN_MOTION_DDOT":"0.0000000000000","COUNTRY_CODE":"US","BSTAR":"0.00020533000000","CENTER_NAME":"EARTH","MEAN_MOTION_DOT":"0.00002777","RCS_SIZE":"LARGE","MEAN_ANOMALY":"283.7285","MEAN_MOTION":"15.06384525","SEMIMAJOR_AXIS":"6925.396","INCLINATION":"53.0533","PERIOD":"95.593","REF_FRAME":"TEME","ARG_OF_PERICENTER":"76.3866","OBJECT_TYPE":"PAYLOAD","TLE_LINE1":"1 48286U 21036L   22203.51183717  .00002777  00000-0  20533-3 0  9991","TLE_LINE2":"2 48286  53.0533 275.0773 0001455  76.3866 283.7285 15.06384525 68425","MEAN_ELEMENT_THEORY":"SGP4","RA_OF_ASC_NODE":"275.0773","OBJECT_ID":"2021-036L","REV_AT_EPOCH":"6842","EPOCH":"2022-07-22T12:17:02.731488","DECAY_DATE":null,"OBJECT_NAME":"STARLINK-2547","LAUNCH_DATE":"2021-04-29","SITE":"AFETR","TIME_SYSTEM":"UTC","PERIAPSIS":"546.253","FILE":"3519932","APOAPSIS":"548.269","ELEMENT_SET_NO":"999","CLASSIFICATION_TYPE":"U","ECCENTRICITY":"0.00014550","GP_ID":"208669542"},{"DECAY_DATE":null,"OBJECT_NAME":"STARLINK-2566","LAUNCH_DATE":"2021-04-29","MEAN_ELEMENT_THEORY":"SGP4","RA_OF_ASC_NODE":"275.0857","OBJECT_ID":"2021-036M","EPOCH":"2022-07-22T12:11:44.588544","REV_AT_EPOCH":"6842","FILE":"3519932","APOAPSIS":"548.137","ELEMENT_SET_NO":"999","CLASSIFICATION_TYPE":"U","GP_ID":"208669792","ECCENTRICITY":"0.00012680","SITE":"AFETR","TIME_SYSTEM":"UTC","PERIAPSIS":"546.381","RCS_SIZE":"LARGE","MEAN_ANOMALY":"295.9202","MEAN_MOTION":"15.06385256","EPHEMERIS_TYPE":"0","NORAD_CAT_ID":"48287","MEAN_MOTION_DDOT":"0.0000000000000","COUNTRY_CODE":"US","BSTAR":"-0.00009066400000","MEAN_MOTION_DOT":"-0.00001631","CENTER_NAME":"EARTH","OBJECT_TYPE":"PAYLOAD","TLE_LINE2":"2 48287  53.0548 275.0857 0001268  64.1917 295.9202 15.06385256 68425","TLE_LINE1":"1 48287U 21036M   22203.50815496 -.00001631  00000-0 -90664-4 0  9990","SEMIMAJOR_AXIS":"6925.394","INCLINATION":"53.0548","PERIOD":"95.593","ARG_OF_PERICENTER":"64.1917","REF_FRAME":"TEME"},{"NORAD_CAT_ID":"48288","EPHEMERIS_TYPE":"0","MEAN_MOTION_DDOT":"0.0000000000000","BSTAR":"0.00034939000000","COUNTRY_CODE":"US","CENTER_NAME":"EARTH","MEAN_MOTION_DOT":"0.00004925","MEAN_ANOMALY":"293.8906","RCS_SIZE":"LARGE","MEAN_MOTION":"15.06392722","SEMIMAJOR_AXIS":"6925.371","INCLINATION":"53.0531","PERIOD":"95.593","ARG_OF_PERICENTER":"66.2242","REF_FRAME":"TEME","TLE_LINE2":"2 48288  53.0531 275.0927 0001518  66.2242 293.8906 15.06392722 69007","TLE_LINE1":"1 48288U 21036N   22203.50350955  .00004925  00000-0  34939-3 0  9994","OBJECT_TYPE":"PAYLOAD","MEAN_ELEMENT_THEORY":"SGP4","OBJECT_ID":"2021-036N","RA_OF_ASC_NODE":"275.0927","REV_AT_EPOCH":"6900","EPOCH":"2022-07-22T12:05:03.225120","DECAY_DATE":null,"LAUNCH_DATE":"2021-04-29","OBJECT_NAME":"STARLINK-2562","TIME_SYSTEM":"UTC","SITE":"AFETR","PERIAPSIS":"546.185","FILE":"3519786","APOAPSIS":"548.287","ECCENTRICITY":"0.00015180","GP_ID":"208644833","ELEMENT_SET_NO":"999","CLASSIFICATION_TYPE":"U"},{"RCS_SIZE":"LARGE","MEAN_ANOMALY":"299.9174","MEAN_MOTION":"15.06393111","MEAN_MOTION_DDOT":"0.0000000000000","EPHEMERIS_TYPE":"0","NORAD_CAT_ID":"48289","MEAN_MOTION_DOT":"0.00000587","CENTER_NAME":"EARTH","COUNTRY_CODE":"US","BSTAR":"0.00005829000000","OBJECT_TYPE":"PAYLOAD","TLE_LINE1":"1 48289U 21036P   22203.50077415  .00000587  00000-0  58290-4 0  9999","TLE_LINE2":"2 48289  53.0552 275.1102 0001438  60.1958 299.9174 15.06393111 68427","PERIOD":"95.593","INCLINATION":"53.0552","SEMIMAJOR_AXIS":"6925.370","ARG_OF_PERICENTER":"60.1958","REF_FRAME":"TEME","DECAY_DATE":null,"OBJECT_NAME":"STARLINK-2545","LAUNCH_DATE":"2021-04-29","MEAN_ELEMENT_THEORY":"SGP4","EPOCH":"2022-07-22T12:01:06.886560","REV_AT_EPOCH":"6842","OBJECT_ID":"2021-036P","RA_OF_ASC_NODE":"275.1102","APOAPSIS":"548.231","FILE":"3519932","ELEMENT_SET_NO":"999","CLASSIFICATION_TYPE":"U","GP_ID":"208670776","ECCENTRICITY":"0.00014380","SITE":"AFETR","TIME_SYSTEM":"UTC","PERIAPSIS":"546.239"},{"TIME_SYSTEM":"UTC","SITE":"AFETR","PERIAPSIS":"546.263","FILE":"3519786","APOAPSIS":"548.229","GP_ID":"208644832","ECCENTRICITY":"0.00014200","ELEMENT_SET_NO":"999","CLASSIFICATION_TYPE":"U","MEAN_ELEMENT_THEORY":"SGP4","EPOCH":"2022-07-22T11:55:48.350496","REV_AT_EPOCH":"6900","RA_OF_ASC_NODE":"275.1323","OBJECT_ID":"2021-036Q","DECAY_DATE":null,"OBJECT_NAME":"STARLINK-2540","LAUNCH_DATE":"2021-04-29","INCLINATION":"53.0527","PERIOD":"95.593","SEMIMAJOR_AXIS":"6925.381","ARG_OF_PERICENTER":"83.0672","REF_FRAME":"TEME","TLE_LINE1":"1 48290U 21036Q   22203.49708739 -.00000807  00000-0 -35317-4 0  9991","TLE_LINE2":"2 48290  53.0527 275.1323 0001420  83.0672 277.0479 15.06389410 69001","OBJECT_TYPE":"PAYLOAD","MEAN_MOTION_DDOT":"0.0000000000000","NORAD_CAT_ID":"48290","EPHEMERIS_TYPE":"0","MEAN_MOTION_DOT":"-0.00000807","CENTER_NAME":"EARTH","BSTAR":"-0.00003531700000","COUNTRY_CODE":"US","MEAN_ANOMALY":"277.0479","RCS_SIZE":"LARGE","MEAN_MOTION":"15.06389410"},{"PERIAPSIS":"546.304","SITE":"AFETR","TIME_SYSTEM":"UTC","CLASSIFICATION_TYPE":"U","ELEMENT_SET_NO":"999","GP_ID":"208669292","ECCENTRICITY":"0.00013810","FILE":"3519932","APOAPSIS":"548.217","OBJECT_ID":"2021-036R","RA_OF_ASC_NODE":"275.1466","REV_AT_EPOCH":"6842","EPOCH":"2022-07-22T11:50:30.945408","MEAN_ELEMENT_THEORY":"SGP4","OBJECT_NAME":"STARLINK-2555","LAUNCH_DATE":"2021-04-29","DECAY_DATE":null,"REF_FRAME":"TEME","ARG_OF_PERICENTER":"56.2725","SEMIMAJOR_AXIS":"6925.396","INCLINATION":"53.0538","PERIOD":"95.593","OBJECT_TYPE":"PAYLOAD","TLE_LINE1":"1 48291U 21036R   22203.49341372  .00000086  00000-0  24692-4 0  9999","TLE_LINE2":"2 48291  53.0538 275.1466 0001381  56.2725 303.8395 15.06384592 68425","COUNTRY_CODE":"US","BSTAR":"0.00002469200000","CENTER_NAME":"EARTH","MEAN_MOTION_DOT":"0.00000086","EPHEMERIS_TYPE":"0","NORAD_CAT_ID":"48291","MEAN_MOTION_DDOT":"0.0000000000000","MEAN_MOTION":"15.06384592","RCS_SIZE":"LARGE","MEAN_ANOMALY":"303.8395"},{"CENTER_NAME":"EARTH","MEAN_MOTION_DOT":"0.00013955","COUNTRY_CODE":"US","BSTAR":"0.00095375000000","MEAN_MOTION_DDOT":"0.0000000000000","EPHEMERIS_TYPE":"0","NORAD_CAT_ID":"48292","MEAN_MOTION":"15.06404115","RCS_SIZE":"LARGE","MEAN_ANOMALY":"293.2925","REF_FRAME":"TEME","ARG_OF_PERICENTER":"66.8223","PERIOD":"95.592","INCLINATION":"53.0547","SEMIMAJOR_AXIS":"6925.336","OBJECT_TYPE":"PAYLOAD","TLE_LINE1":"1 48292U 21036S   22203.50447830  .00013955  00000-0  95375-3 0  9992","TLE_LINE2":"2 48292  53.0547 275.2691 0001511  66.8223 293.2925 15.06404115 69002","EPOCH":"2022-07-22T12:06:26.925120","REV_AT_EPOCH":"6900","RA_OF_ASC_NODE":"275.2691","OBJECT_ID":"2021-036S","MEAN_ELEMENT_THEORY":"SGP4","LAUNCH_DATE":"2021-04-29","OBJECT_NAME":"STARLINK-2542","DECAY_DATE":null,"PERIAPSIS":"546.155","SITE":"AFETR","TIME_SYSTEM":"UTC","ELEMENT_SET_NO":"999","CLASSIFICATION_TYPE":"U","ECCENTRICITY":"0.00015110","GP_ID":"208647667","APOAPSIS":"548.247","FILE":"3519899"},{"RCS_SIZE":"LARGE","MEAN_ANOMALY":"284.5324","MEAN_MOTION":"15.06391703","MEAN_MOTION_DDOT":"0.0000000000000","EPHEMERIS_TYPE":"0","NORAD_CAT_ID":"48293","MEAN_MOTION_DOT":"0.00001071","CENTER_NAME":"EARTH","COUNTRY_CODE":"US","BSTAR":"0.00009082500000","OBJECT_TYPE":"PAYLOAD","TLE_LINE2":"2 48293  53.0532 275.1911 0001523  75.5834 284.5324 15.06391703 68428","TLE_LINE1":"1 48293U 21036T   22203.48603242  .00001071  00000-0  90825-4 0  9993","INCLINATION":"53.0532","PERIOD":"95.593","SEMIMAJOR_AXIS":"6925.374","REF_FRAME":"TEME","ARG_OF_PERICENTER":"75.5834","DECAY_DATE":null,"LAUNCH_DATE":"2021-04-29","OBJECT_NAME":"STARLINK-2550","MEAN_ELEMENT_THEORY":"SGP4","REV_AT_EPOCH":"6842","EPOCH":"2022-07-22T11:39:53.201088","RA_OF_ASC_NODE":"275.1911","OBJECT_ID":"2021-036T","APOAPSIS":"548.294","FILE":"3519932","CLASSIFICATION_TYPE":"U","ELEMENT_SET_NO":"999","ECCENTRICITY":"0.00015230","GP_ID":"208670276","SITE":"AFETR","TIME_SYSTEM":"UTC","PERIAPSIS":"546.184"}];
